IRIDIUM 126             
1 42809U 17039G   23353.46017042  .00000366  00000+0  12369-3 0  9991
2 42809  86.3973  14.2427 0002395  98.1944 261.9524 14.34220233339418
IRIDIUM 124             
1 42810U 17039H   23353.39180981  .00000650  00000+0  18732-3 0  9994
2 42810  86.4485 311.0258 0002284  81.0721 279.0738 14.43279063343743
IRIDIUM 128             
1 42811U 17039J   23353.52067790  .00000123  00000+0  36967-4 0  9998
2 42811  86.3971  45.7345 0002229  96.6075 263.5375 14.34219538339453
IRIDIUM 121             
1 42812U 17039K   23353.47919875  .00000337  00000+0  11328-3 0  9993
2 42812  86.3973  14.2568 0002174  95.2790 264.8653 14.34219181339291
IRIDIUM 133             
1 42955U 17061A   23352.57563113  .00000214  00000+0  69419-4 0  9995
2 42955  86.3975  46.2256 0002274 100.0184 260.1268 14.34218580324111
IRIDIUM 100             
1 42956U 17061B   23353.54604295  .00000342  00000+0  11508-3 0  9998
2 42956  86.3971  45.7597 0002318  94.5451 265.6009 14.34219066324251
IRIDIUM 122             
1 42957U 17061C   23353.58410492  .00000354  00000+0  11925-3 0  9993
2 42957  86.3973  45.7416 0002325  93.3183 266.8279 14.34218419324265
IRIDIUM 129             
1 42958U 17061D   23353.53970351  .00000361  00000+0  12182-3 0  9998
2 42958  86.3972  45.8177 0002349  95.0372 265.1091 14.34219369324275
